[{"OBJECT_NAME":"FORMOSAT 7-3","OBJECT_ID":"2019-036E","EPOCH":"2026-03-09T19:49:52.754592","MEAN_MOTION":15.08933962,"ECCENTRICITY":0.00010606,"INCLINATION":23.9981,"RA_OF_ASC_NODE":141.9797,"ARG_OF_PERICENTER":150.4425,"MEAN_ANOMALY":209.6139,"EPHEMERIS_TYPE":0,"CLASSIFICATION_TYPE":"U","NORAD_CAT_ID":44343,"ELEMENT_SET_NO":999,"REV_AT_EPOCH":36821,"BSTAR":0.00037650049,"MEAN_MOTION_DOT":6.445e-5,"MEAN_MOTION_DDOT":0},{"OBJECT_NAME":"STARLINK-5044","OBJECT_ID":"2022-119N","EPOCH":"2026-03-09T22:07:50.755872","MEAN_MOTION":15.08833709,"ECCENTRICITY":0.00012508,"INCLINATION":53.2189,"RA_OF_ASC_NODE":322.7953,"ARG_OF_PERICENTER":89.0738,"MEAN_ANOMALY":271.0397,"EPHEMERIS_TYPE":0,"CLASSIFICATION_TYPE":"U","NORAD_CAT_ID":53898,"ELEMENT_SET_NO":999,"REV_AT_EPOCH":19172,"BSTAR":-2.937456e-6,"MEAN_MOTION_DOT":-3.35e-6,"MEAN_MOTION_DDOT":0}]
